#dP2023 10 21 18  0  0.00000000      96 __u+U IGS20 EXT  IAC
## 2284 583200.00000000   900.00000000 60238 0.7500000000000
+  118   C06C07C08C09C10C11C12C13C14C16C19C20C21C22C23C24C25
+        C26C27C28C29C30C32C33C34C35C36C37C38C39C40C41C42C43
+        C44C45C46E02E03E04E05E07E08E09E10E11E12E13E14E15E19
+        E21E24E25E26E27E30E31E33E34E36G01G02G03G04G05G06G07
+        G08G09G10G11G12G13G14G15G16G17G18G19G20G21G23G24G25
+        G26G27G28G29G30G31G32J02J03J04R01R02R03R04R05R07R08
+        R09R11R12R13R14R15R16R17R18R19R20R21R22R24R25R26  0
++        10  8  8  9  8  7  9 10  9  8  8  7  8  8  7  8  6
++         7 10  8  9  9  7  7  7  9 10  8 11  9 10  8  8  8
++        10  8  9  7  7  8  7  7  6  7  7  7  6  7  6  8  7
++         7  8  6  7  7  8  8  8  7  7  6  7  7  6  7  7  7
++         7  6  7  8  6  6  7  7  7  7  8  7  7  7  6  8  6
++         5  6  7  7  7  7  7  8 10  9  8  7  6  7  7  8  9
++         7  9  8 10  8  9  8  9  7 11  9  8  7  6  8  8  0
%c M  cc GPS ccc cccc cccc cccc cccc ccccc ccccc ccccc ccccc
%c cc cc ccc ccc cccc cccc cccc cccc ccccc ccccc ccccc ccccc
%f  0.0000000  0.000000000  0.00000000000  0.000000000000000
%f  0.0000000  0.000000000  0.00000000000  0.000000000000000
%i    0    0    0    0      0      0      0      0         0
%i    0    0    0    0      0      0      0      0         0
/* IAC                                ULTRA-RAPID PREDICTION
/* S/V CLOCKS ARE ALIGNED TO GNSS TIME                      
/* G:C1WC2W R:C1PC2P E:C1XC5X C:C2IC6I J:C1CC2S             
/* PCV:IGS20_2280 OL/AL:FES2004  NONE     YN ORB:CoN CLK:CoN
*  2023 10 22 14 45  0.00000000
PC06  -9456.391240  40786.305525  -3309.012469     65.728619
PC07  -5554.116773  28045.172041  31121.881981   -198.464914
PC08 -19508.670550  24894.690786 -28016.816481    282.980132
PC09  -5255.763040  41244.522869   5169.046590      8.927767
PC10   3701.392726  31120.102199  28756.547823     10.049904
PC11 -12213.678847  14976.633226  20216.189257    216.881871
PC12 -15517.556065  -6354.452827  22348.486913    887.622807
PC13 -12484.722148  25984.619797 -30738.227548    371.453868
PC14 -18477.039862   6751.955775 -19767.934654    635.986108
PC16 -12341.987566  39248.588160  -8177.742926   -138.123182
PC19   9562.492266 -12792.008162  22899.716436   -972.873377
PC20  23643.803650   -767.594493  14822.796508    182.033611
PC21 -24596.708538 -12822.787949   2980.032481   -969.184612
PC22 -10807.966974 -18142.734313  18221.208576   -255.996655
PC23  -1650.182584  19305.515415  20089.115450   -838.473755
PC24 -24381.843911   8918.802296 -10286.675318    520.033225
PC25 -17305.004674  20531.372387   7632.149891    238.557903
PC26 -16975.878172  -6165.593885 -21298.733961   -195.345524
PC27  14443.461555  15448.804693 -18219.286695    217.151450
PC28   6089.710649  26850.198183  -4570.471863    163.514369
PC29   6585.043608 -23156.254401 -14111.153374    191.171363
PC30  15441.041554  -4696.654911 -22769.768190     -6.936169
PC32  24665.118362  12688.576753  -3086.609883   -530.812884
PC33  -9588.283845  12822.775921 -22860.411614   -951.516988
PC34 -15128.711917   6329.442612  22569.445086    286.711631
PC35  -7157.860842 -26587.902612   4637.973559    519.710448
PC36  18347.388151 -19862.855455  -6849.958763   -168.196996
PC37  16208.589931   7226.845579  21539.851392   -861.290379
PC38 -25676.883174  26245.737805 -20867.058982    112.805730
PC39 -13050.383348  37583.263130 -13559.571435     -5.331767
PC40  -8937.388991  22401.924133  34644.803299    -41.070630
PC41  10135.895040  18107.147845 -18615.423720   -872.251496
PC42 -24342.730183   -314.246222 -13589.853991   -515.924532
PC43  -7241.545205  22558.768873  14726.867367     45.064991
PC44 -15068.476584 -15100.870494  17993.614720    269.499513
PC45   1141.130407 -18980.134237 -20417.978342    -38.646464
PC46  24387.253137  -9832.302386   9276.620737    -93.821341
PE02 -28387.805759   5922.369402   5987.256930     72.174428
PE03 -17650.759928   3350.095848 -23533.696586    -67.206310
PE04   3534.167183 -20794.170577  20767.574698   -240.106428
PE05 -21478.503318 -15982.720275 -12632.540540     29.927884
PE07  12463.651834  26143.795338  -6127.628721    -83.615307
PE08  -3859.689499  20391.123107 -21116.465672   -165.307871
PE09 -12420.369190 -26117.295134   6278.678164   -200.514764
PE10   6600.497957 -27307.181604   9295.800288   -573.087704
PE11  -1479.124749 -23452.504775  17992.892604   3122.834005
PE12  12945.185019 -26623.471169     95.574079   -746.664119
PE13    900.357620  23839.382100 -17519.573790    -19.639057
PE14   7227.543741  27302.387776   8908.639466    375.962282
PE15 -13179.216899  26504.638175    387.710324    -63.270569
PE19  18711.146997   -603.610384  22926.446325  -1372.244448
PE21  26410.268780   6354.375818  11757.153442   -559.932208
PE24  -8372.282695 -15814.430154 -23593.531082   -389.717808
PE25 -26222.865848  -6573.061072 -12056.447103     -3.618838
PE26  14736.835898   6625.408261 -24794.393601    258.717202
PE27   8989.153956  15605.891818  23494.081378   -180.902347
PE30 -13962.601075  15451.492326  21035.548217   -600.435258
PE31  13508.320345 -15549.724261 -21245.321151     -8.292098
PE33  19344.375219 -13025.662058 -18215.382189      0.802114
PE34 -19317.588016  13671.913676  17788.023241    -73.778854
PE36 -14245.805165  -7268.021302  24911.981160   -133.456440
PG01 -14587.813831  21425.573599   4544.321505    163.488787
PG02 -15993.285681  17670.966635  12025.967324   -538.813327
PG03 -16768.118208  12183.390159 -16691.320060    -63.190875
PG04  -6405.803597  16183.929763 -20017.221830    191.673072
PG05  25669.373255  -5589.804529   4062.473273   -147.477038
PG06  10578.369490  10728.984581 -21795.682693    524.772340
PG07  -2963.875873  23843.907271  11245.571952     33.587050
PG08 -13564.025186   7221.594662  21605.747943   -148.378273
PG09   3159.195669  22194.637392 -14290.435845    -25.133478
PG10 -16003.672144 -11275.496001  18288.831727    -58.353895
PG11  17100.582889  -1940.338030 -20196.278976   -426.649688
PG12  19378.993788 -10347.912426 -15150.985318   -438.686489
PG13  16860.660381   3357.462243  20105.075173    586.890662
PG14  12247.066838  13534.871891  19374.606782    221.425151
PG15  12028.858008  -9914.519116  21023.519792     89.621024
PG16 -26775.568890  -1281.529322   -818.993297   -434.962642
PG17  12782.966429  23201.437635    737.262713    723.758373
PG18   2482.864119 -23175.193454  12570.671895   -456.600820
PG19  16564.238580  19247.919296  -8557.228896    388.464751
PG20  25177.752390    -20.721890  -8108.228450    405.517478
PG21 -16699.106524  14181.213888  14844.549877    146.173444
PG23  -2350.301712 -14726.573294  21991.650260     86.634304
PG24  15010.707854 -19296.073914   9451.318563   -352.591489
PG25   6032.310425 -15456.746995 -21007.931365    473.931574
PG26 -24022.621167  -4846.423547 -10807.990901    221.643317
PG27 -18895.547533  -6551.804058  17427.463560    -58.952212
PG28 -10236.284058 -12757.130439 -20951.843820    -30.351347
PG29  -1232.208928 -22276.738503 -14375.334454   -610.162151
PG30   5288.510714  18849.991043  17952.004476   -476.068868
PG31 -15558.160223  -3180.411299 -21532.081338   -224.930216
PG32 -16508.220542 -20707.332226  -2996.472152   -576.109771
PJ02 -29739.445531  23933.814652  23034.245769     -6.152238
PJ03 -29626.751635  26475.336943  19214.066315     -5.822195
PJ04 -27099.501954  19869.473635 -20367.559249     71.446689
PR01   5631.376978  14817.037585 -19992.947142     68.212774
PR02  18896.013297  16091.804567  -5685.098422    -22.374483
PR03  21357.361506   7679.318498  11615.286368     87.588373
PR04  11886.554571  -4370.930465  22159.989060    207.916816
PR05  -3876.010984 -14329.357588  20757.173440    121.043387
PR07 -21191.704481  -7257.290244 -12224.982154     67.446497
PR08 -11806.912985   4612.628984 -22090.611319    -73.027427
PR09 -10427.493441  -6909.970848 -22199.827398    149.054836
PR11 -21651.583273  12984.598555   3596.187380   -205.349200
PR12  -7812.015897  14412.465496  19573.512669     32.623927
PR13   8239.912866   8040.630909  22748.387765    -40.459264
PR14  21948.755433  -4548.116081  12204.590420     25.453471
PR15  21222.810023 -13264.424368  -4923.473095     85.190601
PR16   8105.865597 -14408.958776 -19427.490492     19.907634
PR17  10529.166471   1040.139410 -23197.249431     28.067013
PR18   9199.924846 -16226.130095 -17400.921099    108.141854
PR19   4651.563744 -24718.262488  -4205.476956   -251.813362
PR20  -4859.490014 -19447.168692  15808.387833   -102.268620
PR21 -10520.673581   -124.461340  23242.338463    -47.500304
PR22  -9792.419272  16687.614967  16648.407676     89.889612
PR24   6146.634815  18838.949213 -16054.783799    -29.202871
PR25 -10799.960564  -1454.117936  23071.402185     -5.951388
PR26 -12165.610643   4357.223615 -21974.716895    -19.722881
EOF
